[{"OBJECT_NAME":"STARLINK-35251","OBJECT_ID":"2025-207N","EPOCH":"2026-03-09T17:00:44.164800","MEAN_MOTION":15.05646349,"ECCENTRICITY":6.199e-5,"INCLINATION":97.6027,"RA_OF_ASC_NODE":138.6721,"ARG_OF_PERICENTER":99.1283,"MEAN_ANOMALY":261.0014,"EPHEMERIS_TYPE":0,"CLASSIFICATION_TYPE":"U","NORAD_CAT_ID":65604,"ELEMENT_SET_NO":999,"REV_AT_EPOCH":2826,"BSTAR":0.00032686355,"MEAN_MOTION_DOT":4.658e-5,"MEAN_MOTION_DDOT":0},{"OBJECT_NAME":"CZ-2F DEB","OBJECT_ID":"2022-093H","EPOCH":"2026-03-09T22:47:12.359904","MEAN_MOTION":15.21733628,"ECCENTRICITY":0.00740619,"INCLINATION":50.0217,"RA_OF_ASC_NODE":315.3952,"ARG_OF_PERICENTER":34.8084,"MEAN_ANOMALY":325.7683,"EPHEMERIS_TYPE":0,"CLASSIFICATION_TYPE":"U","NORAD_CAT_ID":53364,"ELEMENT_SET_NO":999,"REV_AT_EPOCH":19831,"BSTAR":0.00048014935,"MEAN_MOTION_DOT":0.00011557,"MEAN_MOTION_DDOT":0}]
